COSMOS 2219             
1 22219U 92076A   26136.71236178 -.00000161  00000+0 -59586-4 0  9999
2 22219  71.0614 235.8680 0015606  96.5660 263.7240 14.14102893727990
SL-16 R/B               
1 22220U 92076B   26136.67538147 -.00000236  00000+0 -93676-4 0  9998
2 22220  71.0014  45.1624 0013365 341.6000  36.2805 14.16868766731465
COSMOS 2221             
1 22236U 92080A   26136.31136745  .00000943  00000+0  80758-4 0  9999
2 22236  82.5053 214.2991 0013209 330.7693  29.2789 14.96448119790903
SL-16 R/B               
1 22285U 92093B   26136.65318256 -.00000192  00000+0 -73836-4 0  9990
2 22285  71.0215 221.5895 0005631 225.0720 134.9947 14.15458502722779
COSMOS 2228             
1 22286U 92094A   26136.81663984  .00001022  00000+0  85121-4 0  9992
2 22286  82.5180 172.0889 0019470  74.7190 285.6183 14.97472007786252
SL-16 R/B               
1 22566U 93016B   26136.77125802  .00000106  00000+0  78937-4 0  9994
2 22566  71.0081  72.1898 0011844 228.1011 131.9103 14.15311563711803
COSMOS 2242             
1 22626U 93024A   26136.62830081  .00000991  00000+0  83997-4 0  9990
2 22626  82.5201 201.7314 0017781  78.7935 281.5285 14.96807569790551
SL-16 R/B               
1 22803U 93059B   26136.51693753  .00000065  00000+0  55714-4 0  9994
2 22803  70.9904 228.0893 0015046 109.5118 250.7632 14.17241190689142
ARIANE 40 R/B           
1 22830U 93061H   26136.78255407  .00000119  00000+0  59103-4 0  9992
2 22830  98.4830 204.2899 0011963  84.2225 276.0322 14.32893217703851
COSMOS 2278             
1 23087U 94023A   26136.70440115 -.00000241  00000+0 -10123-3 0  9996
2 23087  71.0547  32.7969 0011067 281.4131  78.5748 14.14385847654422
SL-16 R/B               
1 23088U 94023B   26136.86165410 -.00000092  00000+0 -22848-4 0  9998
2 23088  71.0003 287.7174 0004409 224.5314 135.5455 14.15023203655733
SL-16 R/B               
1 23343U 94074B   26136.58007675  .00000264  00000+0  41881-4 0  9992
2 23343  97.7014 164.6155 0006753  13.5873 138.4035 14.79473412697289
SL-16 R/B               
1 23405U 94077B   26136.46336044  .00000159  00000+0  10591-3 0  9992
2 23405  70.9824 209.9035 0001119   7.6286 352.4854 14.15569723625822
