[
    {
        "OBJECT_NAME": "COSMOS 2219",
        "OBJECT_ID": "1992-076A",
        "EPOCH": "2026-05-16T17:05:48.057792",
        "MEAN_MOTION": 14.14102893,
        "ECCENTRICITY": 0.0015606,
        "INCLINATION": 71.0614,
        "RA_OF_ASC_NODE": 235.868,
        "ARG_OF_PERICENTER": 96.566,
        "MEAN_ANOMALY": 263.724,
        "EPHEMERIS_TYPE": 0,
        "CLASSIFICATION_TYPE": "U",
        "NORAD_CAT_ID": 22219,
        "ELEMENT_SET_NO": 999,
        "REV_AT_EPOCH": 72799,
        "BSTAR": -5.9586e-05,
        "MEAN_MOTION_DOT": -1.61e-06,
        "MEAN_MOTION_DDOT": 0
    },
    {
        "OBJECT_NAME": "SL-16 R/B",
        "OBJECT_ID": "1992-076B",
        "EPOCH": "2026-05-16T16:12:32.959008",
        "MEAN_MOTION": 14.16868766,
        "ECCENTRICITY": 0.0013365,
        "INCLINATION": 71.0014,
        "RA_OF_ASC_NODE": 45.1624,
        "ARG_OF_PERICENTER": 341.6,
        "MEAN_ANOMALY": 36.2805,
        "EPHEMERIS_TYPE": 0,
        "CLASSIFICATION_TYPE": "U",
        "NORAD_CAT_ID": 22220,
        "ELEMENT_SET_NO": 999,
        "REV_AT_EPOCH": 73146,
        "BSTAR": -9.3676e-05,
        "MEAN_MOTION_DOT": -2.36e-06,
        "MEAN_MOTION_DDOT": 0
    },
    {
        "OBJECT_NAME": "COSMOS 2221",
        "OBJECT_ID": "1992-080A",
        "EPOCH": "2026-05-16T07:28:22.147680",
        "MEAN_MOTION": 14.96448119,
        "ECCENTRICITY": 0.00132099,
        "INCLINATION": 82.5053,
        "RA_OF_ASC_NODE": 214.2991,
        "ARG_OF_PERICENTER": 330.7693,
        "MEAN_ANOMALY": 29.2789,
        "EPHEMERIS_TYPE": 0,
        "CLASSIFICATION_TYPE": "U",
        "NORAD_CAT_ID": 22236,
        "ELEMENT_SET_NO": 999,
        "REV_AT_EPOCH": 79090,
        "BSTAR": 8.0758153e-05,
        "MEAN_MOTION_DOT": 9.43e-06,
        "MEAN_MOTION_DDOT": 0
    },
    {
        "OBJECT_NAME": "SL-16 R/B",
        "OBJECT_ID": "1992-093B",
        "EPOCH": "2026-05-16T15:40:34.973184",
        "MEAN_MOTION": 14.15458502,
        "ECCENTRICITY": 0.0005631,
        "INCLINATION": 71.0215,
        "RA_OF_ASC_NODE": 221.5895,
        "ARG_OF_PERICENTER": 225.072,
        "MEAN_ANOMALY": 134.9947,
        "EPHEMERIS_TYPE": 0,
        "CLASSIFICATION_TYPE": "U",
        "NORAD_CAT_ID": 22285,
        "ELEMENT_SET_NO": 999,
        "REV_AT_EPOCH": 72277,
        "BSTAR": -7.3836e-05,
        "MEAN_MOTION_DOT": -1.92e-06,
        "MEAN_MOTION_DDOT": 0
    },
    {
        "OBJECT_NAME": "COSMOS 2228",
        "OBJECT_ID": "1992-094A",
        "EPOCH": "2026-05-16T19:35:57.682176",
        "MEAN_MOTION": 14.97472007,
        "ECCENTRICITY": 0.001947,
        "INCLINATION": 82.518,
        "RA_OF_ASC_NODE": 172.0889,
        "ARG_OF_PERICENTER": 74.719,
        "MEAN_ANOMALY": 285.6183,
        "EPHEMERIS_TYPE": 0,
        "CLASSIFICATION_TYPE": "U",
        "NORAD_CAT_ID": 22286,
        "ELEMENT_SET_NO": 999,
        "REV_AT_EPOCH": 78625,
        "BSTAR": 8.5121e-05,
        "MEAN_MOTION_DOT": 1.022e-05,
        "MEAN_MOTION_DDOT": 0
    },
    {
        "OBJECT_NAME": "SL-16 R/B",
        "OBJECT_ID": "1993-016B",
        "EPOCH": "2026-05-16T18:30:36.692928",
        "MEAN_MOTION": 14.15311563,
        "ECCENTRICITY": 0.0011844,
        "INCLINATION": 71.0081,
        "RA_OF_ASC_NODE": 72.1898,
        "ARG_OF_PERICENTER": 228.1011,
        "MEAN_ANOMALY": 131.9103,
        "EPHEMERIS_TYPE": 0,
        "CLASSIFICATION_TYPE": "U",
        "NORAD_CAT_ID": 22566,
        "ELEMENT_SET_NO": 999,
        "REV_AT_EPOCH": 71180,
        "BSTAR": 7.8937e-05,
        "MEAN_MOTION_DOT": 1.06e-06,
        "MEAN_MOTION_DDOT": 0
    },
    {
        "OBJECT_NAME": "COSMOS 2242",
        "OBJECT_ID": "1993-024A",
        "EPOCH": "2026-05-16T15:04:45.189984",
        "MEAN_MOTION": 14.96807569,
        "ECCENTRICITY": 0.0017781,
        "INCLINATION": 82.5201,
        "RA_OF_ASC_NODE": 201.7314,
        "ARG_OF_PERICENTER": 78.7935,
        "MEAN_ANOMALY": 281.5285,
        "EPHEMERIS_TYPE": 0,
        "CLASSIFICATION_TYPE": "U",
        "NORAD_CAT_ID": 22626,
        "ELEMENT_SET_NO": 999,
        "REV_AT_EPOCH": 79055,
        "BSTAR": 8.3997e-05,
        "MEAN_MOTION_DOT": 9.91e-06,
        "MEAN_MOTION_DDOT": 0
    },
    {
        "OBJECT_NAME": "SL-16 R/B",
        "OBJECT_ID": "1993-059B",
        "EPOCH": "2026-05-16T12:24:23.402592",
        "MEAN_MOTION": 14.1724119,
        "ECCENTRICITY": 0.0015046,
        "INCLINATION": 70.9904,
        "RA_OF_ASC_NODE": 228.0893,
        "ARG_OF_PERICENTER": 109.5118,
        "MEAN_ANOMALY": 250.7632,
        "EPHEMERIS_TYPE": 0,
        "CLASSIFICATION_TYPE": "U",
        "NORAD_CAT_ID": 22803,
        "ELEMENT_SET_NO": 999,
        "REV_AT_EPOCH": 68914,
        "BSTAR": 5.5714e-05,
        "MEAN_MOTION_DOT": 6.5e-07,
        "MEAN_MOTION_DDOT": 0
    },
    {
        "OBJECT_NAME": "ARIANE 40 R/B",
        "OBJECT_ID": "1993-061H",
        "EPOCH": "2026-05-16T18:46:52.671648",
        "MEAN_MOTION": 14.32893217,
        "ECCENTRICITY": 0.0011963,
        "INCLINATION": 98.483,
        "RA_OF_ASC_NODE": 204.2899,
        "ARG_OF_PERICENTER": 84.2225,
        "MEAN_ANOMALY": 276.0322,
        "EPHEMERIS_TYPE": 0,
        "CLASSIFICATION_TYPE": "U",
        "NORAD_CAT_ID": 22830,
        "ELEMENT_SET_NO": 999,
        "REV_AT_EPOCH": 70385,
        "BSTAR": 5.9103e-05,
        "MEAN_MOTION_DOT": 1.19e-06,
        "MEAN_MOTION_DDOT": 0
    },
    {
        "OBJECT_NAME": "COSMOS 2278",
        "OBJECT_ID": "1994-023A",
        "EPOCH": "2026-05-16T16:54:20.259360",
        "MEAN_MOTION": 14.14385847,
        "ECCENTRICITY": 0.0011067,
        "INCLINATION": 71.0547,
        "RA_OF_ASC_NODE": 32.7969,
        "ARG_OF_PERICENTER": 281.4131,
        "MEAN_ANOMALY": 78.5748,
        "EPHEMERIS_TYPE": 0,
        "CLASSIFICATION_TYPE": "U",
        "NORAD_CAT_ID": 23087,
        "ELEMENT_SET_NO": 999,
        "REV_AT_EPOCH": 65442,
        "BSTAR": -0.00010123,
        "MEAN_MOTION_DOT": -2.41e-06,
        "MEAN_MOTION_DDOT": 0
    },
    {
        "OBJECT_NAME": "SL-16 R/B",
        "OBJECT_ID": "1994-023B",
        "EPOCH": "2026-05-16T20:40:46.914240",
        "MEAN_MOTION": 14.15023203,
        "ECCENTRICITY": 0.0004409,
        "INCLINATION": 71.0003,
        "RA_OF_ASC_NODE": 287.7174,
        "ARG_OF_PERICENTER": 224.5314,
        "MEAN_ANOMALY": 135.5455,
        "EPHEMERIS_TYPE": 0,
        "CLASSIFICATION_TYPE": "U",
        "NORAD_CAT_ID": 23088,
        "ELEMENT_SET_NO": 999,
        "REV_AT_EPOCH": 65573,
        "BSTAR": -2.2848e-05,
        "MEAN_MOTION_DOT": -9.2e-07,
        "MEAN_MOTION_DDOT": 0
    },
    {
        "OBJECT_NAME": "SL-16 R/B",
        "OBJECT_ID": "1994-074B",
        "EPOCH": "2026-05-16T13:55:18.631200",
        "MEAN_MOTION": 14.79473412,
        "ECCENTRICITY": 0.0006753,
        "INCLINATION": 97.7014,
        "RA_OF_ASC_NODE": 164.6155,
        "ARG_OF_PERICENTER": 13.5873,
        "MEAN_ANOMALY": 138.4035,
        "EPHEMERIS_TYPE": 0,
        "CLASSIFICATION_TYPE": "U",
        "NORAD_CAT_ID": 23343,
        "ELEMENT_SET_NO": 999,
        "REV_AT_EPOCH": 69728,
        "BSTAR": 4.1881e-05,
        "MEAN_MOTION_DOT": 2.64e-06,
        "MEAN_MOTION_DDOT": 0
    },
    {
        "OBJECT_NAME": "SL-16 R/B",
        "OBJECT_ID": "1994-077B",
        "EPOCH": "2026-05-16T11:07:14.342016",
        "MEAN_MOTION": 14.15569723,
        "ECCENTRICITY": 0.0001119,
        "INCLINATION": 70.9824,
        "RA_OF_ASC_NODE": 209.9035,
        "ARG_OF_PERICENTER": 7.6286,
        "MEAN_ANOMALY": 352.4854,
        "EPHEMERIS_TYPE": 0,
        "CLASSIFICATION_TYPE": "U",
        "NORAD_CAT_ID": 23405,
        "ELEMENT_SET_NO": 999,
        "REV_AT_EPOCH": 62582,
        "BSTAR": 0.00010591,
        "MEAN_MOTION_DOT": 1.59e-06,
        "MEAN_MOTION_DDOT": 0
    }
]